[{"OBJECT_NAME":"OBJECT B","OBJECT_ID":"2023-189B","EPOCH":"2026-03-09T23:19:13.152000","MEAN_MOTION":15.72871024,"ECCENTRICITY":0.00049112,"INCLINATION":97.414,"RA_OF_ASC_NODE":101.6861,"ARG_OF_PERICENTER":172.6117,"MEAN_ANOMALY":187.522,"EPHEMERIS_TYPE":0,"CLASSIFICATION_TYPE":"U","NORAD_CAT_ID":58503,"ELEMENT_SET_NO":999,"REV_AT_EPOCH":12706,"BSTAR":0.00074828171,"MEAN_MOTION_DOT":0.00102221,"MEAN_MOTION_DDOT":0},{"OBJECT_NAME":"STARLINK-11473 [DTC]","OBJECT_ID":"2024-217D","EPOCH":"2026-03-09T06:23:04.225632","MEAN_MOTION":15.69703182,"ECCENTRICITY":0.00012687,"INCLINATION":53.1574,"RA_OF_ASC_NODE":73.5928,"ARG_OF_PERICENTER":81.2542,"MEAN_ANOMALY":278.8619,"EPHEMERIS_TYPE":0,"CLASSIFICATION_TYPE":"U","NORAD_CAT_ID":62060,"ELEMENT_SET_NO":999,"REV_AT_EPOCH":7510,"BSTAR":0.0015542493,"MEAN_MOTION_DOT":0.00192074,"MEAN_MOTION_DDOT":0}]
